[{"OBJECT_NAME":"OBJECT B","OBJECT_ID":"2024-024B","EPOCH":"2026-03-09T23:03:07.239744","MEAN_MOTION":15.20764865,"ECCENTRICITY":0.00185665,"INCLINATION":97.3159,"RA_OF_ASC_NODE":138.1992,"ARG_OF_PERICENTER":118.5867,"MEAN_ANOMALY":241.724,"EPHEMERIS_TYPE":0,"CLASSIFICATION_TYPE":"U","NORAD_CAT_ID":58918,"ELEMENT_SET_NO":999,"REV_AT_EPOCH":11626,"BSTAR":0.00044590474,"MEAN_MOTION_DOT":9.803e-5,"MEAN_MOTION_DDOT":0},{"OBJECT_NAME":"ARIANE 2 R\/B","OBJECT_ID":"1989-006B","EPOCH":"2026-03-09T17:20:14.678304","MEAN_MOTION":2.29246704,"ECCENTRICITY":0.71608116,"INCLINATION":8.2792,"RA_OF_ASC_NODE":88.2811,"ARG_OF_PERICENTER":49.9107,"MEAN_ANOMALY":353.7223,"EPHEMERIS_TYPE":0,"CLASSIFICATION_TYPE":"U","NORAD_CAT_ID":19773,"ELEMENT_SET_NO":999,"REV_AT_EPOCH":30838,"BSTAR":0.0011107411,"MEAN_MOTION_DOT":-4.7e-7,"MEAN_MOTION_DDOT":0}]
